{"type": "FeatureCollection", "features": [{"type": "Feature", "geometry": {"type": "Point", "coordinates": [132.4619275, 34.3912621]}, "properties": {"name": "文ちゃん", "category": "restaurant", "tags": ["restaurant"], "url": "https://www.okonomimura.jp", "description": ""}}, {"type": "Feature", "geometry": {"type": "Point", "coordinates": [132.454485, 34.394216]}, "properties": {"name": "長田屋", "category": "restaurant", "tags": ["restaurant"], "url": "http://nagataya-okonomi.com/", "description": ""}}, {"type": "Feature", "geometry": {"type": "Point", "coordinates": [132.4547852, 34.3941634]}, "properties": {"name": "広島お好み横丁「／５」 GOBUNNO", "category": "restaurant", "tags": ["restaurant"], "url": "https://www.gobunno.com", "description": ""}}, {"type": "Feature", "geometry": {"type": "Point", "coordinates": [132.4618768, 34.39129399999999]}, "properties": {"name": "お好み村 てつ", "category": "restaurant", "tags": ["restaurant"], "url": "https://www.instagram.com", "description": ""}}, {"type": "Feature", "geometry": {"type": "Point", "coordinates": [132.4672031, 34.3921804]}, "properties": {"name": "情熱鉄板! お好み焼き 川創本店", "category": "restaurant", "tags": ["restaurant"], "url": "http://kawasouhon.owst.jp", "description": ""}}, {"type": "Feature", "geometry": {"type": "Point", "coordinates": [132.458704, 34.3903008]}, "properties": {"name": "お好み焼き ジュゲム", "category": "restaurant", "tags": ["restaurant"], "url": "http://japoncompany.business", "description": ""}}, {"type": "Feature", "geometry": {"type": "Point", "coordinates": [132.4618798, 34.3913742]}, "properties": {"name": "廣島お好み焼き 祿 ROKU", "category": "restaurant", "tags": ["restaurant"], "url": "https://www.okonomimura.jp", "description": ""}}, {"type": "Feature", "geometry": {"type": "Point", "coordinates": [132.4631279, 34.3906275]}, "properties": {"name": "情熱鉄板！お好み焼き 川創 新天地", "category": "restaurant", "tags": ["restaurant"], "url": "https://www.kawasoushin.owst.jp", "description": ""}}, {"type": "Feature", "geometry": {"type": "Point", "coordinates": [132.4622874, 34.3914979]}, "properties": {"name": "元祖へんくつや 本店", "category": "restaurant", "tags": ["restaurant"], "url": "https://www.ganso-henkutuya.com", "description": ""}}, {"type": "Feature", "geometry": {"type": "Point", "coordinates": [132.464862, 34.39259699999999]}, "properties": {"name": "五エ門 胡町本店", "category": "restaurant", "tags": ["restaurant"], "url": "http://goemon.in/", "description": ""}}, {"type": "Feature", "geometry": {"type": "Point", "coordinates": [132.4651881, 34.3899556]}, "properties": {"name": "お好みてっぱん焼 博貴", "category": "restaurant", "tags": ["restaurant"], "url": "https://www.instagram.com", "description": ""}}, {"type": "Feature", "geometry": {"type": "Point", "coordinates": [132.465924, 34.3907799]}, "properties": {"name": "お好み居酒屋 みほ", "category": "restaurant", "tags": ["restaurant"], "url": "https://okonomi-miho.com/?utm_source=GBP&utm_medium=GBP&utm_term=GBP&utm_content=GBP&utm_campaign=GBP", "description": ""}}, {"type": "Feature", "geometry": {"type": "Point", "coordinates": [132.4637929, 34.3899824]}, "properties": {"name": "お好み焼き居酒屋鉄板すっくん", "category": "restaurant", "tags": ["restaurant"], "url": "https://sukkun.owst.jp/", "description": ""}}, {"type": "Feature", "geometry": {"type": "Point", "coordinates": [132.461028, 34.387661]}, "properties": {"name": "てっぱん料理 味味亭", "category": "restaurant", "tags": ["restaurant"], "url": "https://www.hirokoshi.co.jp/mimitei", "description": ""}}, {"type": "Feature", "geometry": {"type": "Point", "coordinates": [132.4630338, 34.3896985]}, "properties": {"name": "焼肉ふるさと 流川店", "category": "restaurant", "tags": ["restaurant"], "url": "https://tabelog.com/hiroshima/A3401/A340109/34024734/", "description": ""}}, {"type": "Feature", "geometry": {"type": "Point", "coordinates": [132.4582073, 34.39215739999999]}, "properties": {"name": "焼肉 冷麺 壇光 -DANKO-", "category": "restaurant", "tags": ["restaurant"], "url": "https://ya5a201.gorp.jp/", "description": ""}}, {"type": "Feature", "geometry": {"type": "Point", "coordinates": [132.4601524, 34.3905106]}, "properties": {"name": "元祖焼肉 えひめ屋 広島中町店", "category": "restaurant", "tags": ["restaurant"], "url": "https://www.hotpepper.jp/strJ003693267/", "description": ""}}, {"type": "Feature", "geometry": {"type": "Point", "coordinates": [132.4595927, 34.3933733]}, "properties": {"name": "とんかつ かつまる （TONKATSU KATSUMARU）", "category": "restaurant", "tags": ["restaurant"], "url": "https://www.toyokanko-g.co.jp/katsumaru/", "description": ""}}, {"type": "Feature", "geometry": {"type": "Point", "coordinates": [132.4612419, 34.3936883]}, "properties": {"name": "カープ鳥 中の棚スタジアム", "category": "restaurant", "tags": ["restaurant"], "url": "http://www.carpdori.com/index.html", "description": ""}}, {"type": "Feature", "geometry": {"type": "Point", "coordinates": [132.4661633, 34.3911479]}, "properties": {"name": "やきとり 雅", "category": "restaurant", "tags": ["restaurant"], "url": "https://y973000.gorp.jp/", "description": ""}}, {"type": "Feature", "geometry": {"type": "Point", "coordinates": [132.463714, 34.39115]}, "properties": {"name": "やきとり よがんす", "category": "restaurant", "tags": ["restaurant"], "url": "https://www.instagram.com/p/DZCY6GHhEs7/", "description": ""}}, {"type": "Feature", "geometry": {"type": "Point", "coordinates": [132.4655193, 34.391126]}, "properties": {"name": "広島料理 西海", "category": "restaurant", "tags": ["restaurant"], "url": "https://y050600.gorp.jp/", "description": ""}}, {"type": "Feature", "geometry": {"type": "Point", "coordinates": [132.464382, 34.3918724]}, "properties": {"name": "八雲流川店", "category": "restaurant", "tags": ["restaurant"], "url": "https://www.hirokoshi.co.jp/yagumon", "description": ""}}, {"type": "Feature", "geometry": {"type": "Point", "coordinates": [132.4644943, 34.3897461]}, "properties": {"name": "よりみち酒場 檜や", "category": "restaurant", "tags": ["restaurant"], "url": "https://hitosara.com/0006062210/?cid=gm_hp", "description": ""}}, {"type": "Feature", "geometry": {"type": "Point", "coordinates": [132.4653421, 34.3914923]}, "properties": {"name": "だし鍋割烹 山竹", "category": "restaurant", "tags": ["restaurant"], "url": "https://yamatake.owst.jp/", "description": ""}}, {"type": "Feature", "geometry": {"type": "Point", "coordinates": [132.4635174, 34.3919608]}, "properties": {"name": "鮨 割烹 汐", "category": "restaurant", "tags": ["restaurant"], "url": "https://www.hotpepper.jp/strJ003942927/", "description": ""}}, {"type": "Feature", "geometry": {"type": "Point", "coordinates": [132.4653111, 34.3910577]}, "properties": {"name": "十升 薬研堀店", "category": "restaurant", "tags": ["restaurant"], "url": "https://sowcreatetoumasu.owst.jp/", "description": ""}}, {"type": "Feature", "geometry": {"type": "Point", "coordinates": [132.463452, 34.3891922]}, "properties": {"name": "広島大衆居酒屋 十升 流川通り店", "category": "restaurant", "tags": ["restaurant"], "url": "https://sowcreatetoumasu.owst.jp/", "description": ""}}, {"type": "Feature", "geometry": {"type": "Point", "coordinates": [132.4625792, 34.3898226]}, "properties": {"name": "広島牡蠣と海鮮 KUROHIGEシーフード×２", "category": "restaurant", "tags": ["restaurant"], "url": "https://www.hotpepper.jp/strJ001177930/", "description": ""}}, {"type": "Feature", "geometry": {"type": "Point", "coordinates": [132.4653827, 34.3913383]}, "properties": {"name": "タコハイ酒場めん168", "category": "restaurant", "tags": ["restaurant"], "url": "https://hoshimaru-iroha.com/", "description": ""}}, {"type": "Feature", "geometry": {"type": "Point", "coordinates": [132.4647844, 34.3911581]}, "properties": {"name": "広島 お取り寄せグルメ 酒場 伽羅-GALA-", "category": "restaurant", "tags": ["restaurant"], "url": "https://hiroshima-gala.com/", "description": ""}}, {"type": "Feature", "geometry": {"type": "Point", "coordinates": [132.4650491, 34.3904015]}, "properties": {"name": "ボラーチョス 広島", "category": "restaurant", "tags": ["restaurant"], "url": "https://borrachos-hiroshima.owst.jp/", "description": ""}}, {"type": "Feature", "geometry": {"type": "Point", "coordinates": [132.4553758, 34.3919635]}, "properties": {"name": "カルシャカ", "category": "restaurant", "tags": ["restaurant"], "url": "https://karsiyaka.jp/", "description": ""}}, {"type": "Feature", "geometry": {"type": "Point", "coordinates": [132.459945, 34.3930156]}, "properties": {"name": "ガネーシュ 本通り店", "category": "restaurant", "tags": ["restaurant"], "url": "https://ganeshindo.com/", "description": ""}}, {"type": "Feature", "geometry": {"type": "Point", "coordinates": [132.4612216, 34.3914326]}, "properties": {"name": "ニューヨーク ニューヨーク 並木店", "category": "restaurant", "tags": ["restaurant"], "url": "https://www.instagram.com/newyork_newyork_namikistreet/?hl=ja", "description": ""}}, {"type": "Feature", "geometry": {"type": "Point", "coordinates": [132.4652648, 34.3922008]}, "properties": {"name": "呉麺屋 胡通り店", "category": "restaurant", "tags": ["restaurant"], "url": "https://gomenya.jp/", "description": ""}}, {"type": "Feature", "geometry": {"type": "Point", "coordinates": [132.4616173, 34.3934708]}, "properties": {"name": "二郎系ラーメン 麺匠 やま虎 本通り本店", "category": "restaurant", "tags": ["restaurant"], "url": "https://www.hotpepper.jp/strJ001232325/", "description": ""}}, {"type": "Feature", "geometry": {"type": "Point", "coordinates": [132.46397, 34.3918901]}, "properties": {"name": "らぁ麺 はま廣", "category": "restaurant", "tags": ["restaurant"], "url": "https://www.instagram.com/hamahiro1130", "description": ""}}, {"type": "Feature", "geometry": {"type": "Point", "coordinates": [132.4633136, 34.3921765]}, "properties": {"name": "たこやき亭 蛸心", "category": "restaurant", "tags": ["restaurant"], "url": "https://takoshin77fufu.com/", "description": ""}}, {"type": "Feature", "geometry": {"type": "Point", "coordinates": [132.4654279, 34.3908766]}, "properties": {"name": "本家 カリトロ 広島店", "category": "restaurant", "tags": ["restaurant"], "url": "https://www.hotpepper.jp/strJ001258970/", "description": ""}}, {"type": "Feature", "geometry": {"type": "Point", "coordinates": [132.4589676, 34.3938491]}, "properties": {"name": "麺屋台 我馬 紙屋町店", "category": "restaurant", "tags": ["restaurant"], "url": "https://www.gaba-2000.com/", "description": ""}}, {"type": "Feature", "geometry": {"type": "Point", "coordinates": [132.4604975, 34.3949327]}, "properties": {"name": "お好み焼 ねぎ庵 紙屋町店", "category": "restaurant", "tags": ["restaurant"], "url": "https://negiankamiyachou.owst.jp/", "description": ""}}, {"type": "Feature", "geometry": {"type": "Point", "coordinates": [132.455934, 34.3947715]}, "properties": {"name": "のん太鮨 紙屋町店", "category": "restaurant", "tags": ["restaurant"], "url": "https://fujima-g.jp/nonta", "description": ""}}, {"type": "Feature", "geometry": {"type": "Point", "coordinates": [132.4600661, 34.3950058]}, "properties": {"name": "個室居酒屋 たなぼた 広島紙屋町店", "category": "restaurant", "tags": ["restaurant"], "url": "https://www.hotpepper.jp/strJ003917276", "description": ""}}, {"type": "Feature", "geometry": {"type": "Point", "coordinates": [132.4619014, 34.3914342]}, "properties": {"name": "お好み村", "category": "restaurant", "tags": ["restaurant"], "url": "http://okonomimura.jp/index.html", "description": ""}}, {"type": "Feature", "geometry": {"type": "Point", "coordinates": [132.462058, 34.391361]}, "properties": {"name": "お好み共和国 ひろしま村", "category": "restaurant", "tags": ["restaurant"], "url": "https://xn--t8jg3mz29n7vdbuczw6c.com/", "description": ""}}, {"type": "Feature", "geometry": {"type": "Point", "coordinates": [132.4632195, 34.3920219]}, "properties": {"name": "ワンショットジャック", "category": "bar", "tags": ["bar"], "url": null, "description": ""}}, {"type": "Feature", "geometry": {"type": "Point", "coordinates": [132.4785913, 34.39530209999999]}, "properties": {"name": "えんじぇるぴゅあ", "category": "bar", "tags": ["bar"], "url": "https://www.angelpure-hiroshima.com", "description": ""}}, {"type": "Feature", "geometry": {"type": "Point", "coordinates": [132.451605, 34.4097019]}, "properties": {"name": "メイド喫茶 めーるぴゅあ～merpure～", "category": "bar", "tags": ["bar"], "url": "https://angelpure-hiroshima.com/", "description": ""}}, {"type": "Feature", "geometry": {"type": "Point", "coordinates": [132.4636343, 34.3894615]}, "properties": {"name": "Live Bar GAKU - SIX ONE-", "category": "bar", "tags": ["bar"], "url": "https://six-one.jp/live-bar-gaku/", "description": ""}}, {"type": "Feature", "geometry": {"type": "Point", "coordinates": [132.46335, 34.39213]}, "properties": {"name": "ラスベガス・ダーツバー", "category": "bar", "tags": ["bar"], "url": "https://japoncompany.business/hiroshima/574530-", "description": ""}}, {"type": "Feature", "geometry": {"type": "Point", "coordinates": [132.4677777, 34.3926771]}, "properties": {"name": "相席『ALFA』（アルファ）広島店", "category": "bar", "tags": ["bar"], "url": null, "description": ""}}, {"type": "Feature", "geometry": {"type": "Point", "coordinates": [132.4653512, 34.391906]}, "properties": {"name": "広島 キャバクラ SAKUYA(サクヤ)", "category": "bar", "tags": ["bar"], "url": "https://sp.pokepara.jp/hiroshima/m701/a1601/shop22812/", "description": ""}}, {"type": "Feature", "geometry": {"type": "Point", "coordinates": [132.464194, 34.3924814]}, "properties": {"name": "クラブ SHIRAYUKI (シラユキ) 広島", "category": "bar", "tags": ["bar"], "url": "https://shirayuki-hiroshima.com/", "description": ""}}, {"type": "Feature", "geometry": {"type": "Point", "coordinates": [132.4643785, 34.3918047]}, "properties": {"name": "マダムローラン", "category": "bar", "tags": ["bar"], "url": "https://www.hirokoshi.co.jp/madamelaurencin", "description": ""}}, {"type": "Feature", "geometry": {"type": "Point", "coordinates": [132.464381, 34.391805]}, "properties": {"name": "クラブてい", "category": "bar", "tags": ["bar"], "url": null, "description": ""}}, {"type": "Feature", "geometry": {"type": "Point", "coordinates": [132.477502, 34.3952365]}, "properties": {"name": "Bar opus A", "category": "bar", "tags": ["bar"], "url": "https://instagram.com/opusa824?igshid=YmMyMTA2M2Y=", "description": ""}}, {"type": "Feature", "geometry": {"type": "Point", "coordinates": [132.4651318, 34.3919647]}, "properties": {"name": "Lounge Lutella", "category": "bar", "tags": ["bar"], "url": "http://www.hiroshima-lutella.com/", "description": ""}}, {"type": "Feature", "geometry": {"type": "Point", "coordinates": [132.4652525, 34.391816]}, "properties": {"name": "Reborn", "category": "bar", "tags": ["bar"], "url": null, "description": ""}}, {"type": "Feature", "geometry": {"type": "Point", "coordinates": [132.4639796, 34.392411]}, "properties": {"name": "広島 キャバクラ MIKOTO", "category": "bar", "tags": ["bar"], "url": "https://mikoto-hiroshima.com/", "description": ""}}, {"type": "Feature", "geometry": {"type": "Point", "coordinates": [132.465312, 34.3914193]}, "properties": {"name": "ラウンジ椿", "category": "bar", "tags": ["bar"], "url": "https://koc-japan.info/archives/shop-restaurant/%E6%A4%BF%E3%83%84%E3%83%90%E3%82%AD", "description": ""}}, {"type": "Feature", "geometry": {"type": "Point", "coordinates": [132.4657636, 34.3918101]}, "properties": {"name": "コケット", "category": "bar", "tags": ["bar"], "url": null, "description": ""}}, {"type": "Feature", "geometry": {"type": "Point", "coordinates": [132.4660226, 34.3917263]}, "properties": {"name": "Members Lega(メンバーズレガ)", "category": "bar", "tags": ["bar"], "url": "https://sp.pokepara.jp/hiroshima/m701/a1601/shop14778/", "description": ""}}, {"type": "Feature", "geometry": {"type": "Point", "coordinates": [132.4643057, 34.3923609]}, "properties": {"name": "Hero", "category": "bar", "tags": ["bar"], "url": null, "description": ""}}, {"type": "Feature", "geometry": {"type": "Point", "coordinates": [132.4642964, 34.3923678]}, "properties": {"name": "Story", "category": "bar", "tags": ["bar"], "url": null, "description": ""}}, {"type": "Feature", "geometry": {"type": "Point", "coordinates": [132.4643057, 34.3923609]}, "properties": {"name": "ベア", "category": "bar", "tags": ["bar"], "url": null, "description": ""}}, {"type": "Feature", "geometry": {"type": "Point", "coordinates": [132.4651499, 34.3919552]}, "properties": {"name": "Lounge Do", "category": "bar", "tags": ["bar"], "url": "https://casmoo.jp/shop/194/", "description": ""}}, {"type": "Feature", "geometry": {"type": "Point", "coordinates": [132.4659266, 34.3923723]}, "properties": {"name": "クルー（Ｃｒｅｗ）", "category": "bar", "tags": ["bar"], "url": "https://www.instagram.com/crew.crew77", "description": ""}}, {"type": "Feature", "geometry": {"type": "Point", "coordinates": [132.4652936, 34.3919127]}, "properties": {"name": "ナイスミドル", "category": "bar", "tags": ["bar"], "url": null, "description": ""}}, {"type": "Feature", "geometry": {"type": "Point", "coordinates": [132.4660015, 34.3922656]}, "properties": {"name": "Lily", "category": "bar", "tags": ["bar"], "url": null, "description": ""}}, {"type": "Feature", "geometry": {"type": "Point", "coordinates": [132.4660226, 34.3917263]}, "properties": {"name": "Lefran 〜ルフラン〜", "category": "bar", "tags": ["bar"], "url": "https://www.instagram.com/lefran_hiroshima/", "description": ""}}, {"type": "Feature", "geometry": {"type": "Point", "coordinates": [132.4643735, 34.3924418]}, "properties": {"name": "Ribbon", "category": "bar", "tags": ["bar"], "url": null, "description": ""}}, {"type": "Feature", "geometry": {"type": "Point", "coordinates": [132.4655678, 34.390502]}, "properties": {"name": "Night Carnival ナイトカーニバル", "category": "bar", "tags": ["bar"], "url": "http://night-carnival.jimdo.com/", "description": ""}}, {"type": "Feature", "geometry": {"type": "Point", "coordinates": [132.4640767, 34.3919123]}, "properties": {"name": "CORAZON", "category": "bar", "tags": ["bar"], "url": null, "description": ""}}, {"type": "Feature", "geometry": {"type": "Point", "coordinates": [132.4654183, 34.3918862]}, "properties": {"name": "サファリ", "category": "bar", "tags": ["bar"], "url": null, "description": ""}}, {"type": "Feature", "geometry": {"type": "Point", "coordinates": [132.465754, 34.3924282]}, "properties": {"name": "バージンロード", "category": "bar", "tags": ["bar"], "url": "https://www.instagram.com/virgin_road.hiroshima?igsh=NGl2M3Q5dmtrcW0z&utm_source=qr", "description": ""}}, {"type": "Feature", "geometry": {"type": "Point", "coordinates": [132.4658464, 34.39203]}, "properties": {"name": "広島 キャバクラ CAMELLIA（カメリア）", "category": "bar", "tags": ["bar"], "url": "https://camellia-hiroshima.com/", "description": ""}}, {"type": "Feature", "geometry": {"type": "Point", "coordinates": [132.4652265, 34.3912206]}, "properties": {"name": "MIX BAR ROSSO", "category": "bar", "tags": ["bar"], "url": "https://blueman01251119.wixsite.com/website", "description": ""}}, {"type": "Feature", "geometry": {"type": "Point", "coordinates": [132.4632123, 34.38925]}, "properties": {"name": "CLUB L2 広島", "category": "bar", "tags": ["bar"], "url": "https://clubl2.net/", "description": ""}}, {"type": "Feature", "geometry": {"type": "Point", "coordinates": [132.4647277, 34.392074]}, "properties": {"name": "カラオケスナック4105 流川店", "category": "bar", "tags": ["bar"], "url": "https://4105-hiroshima.com/nagarekawa/", "description": ""}}, {"type": "Feature", "geometry": {"type": "Point", "coordinates": [132.4785376, 34.395435]}, "properties": {"name": "カラオケスナック ４１０５（よっとこ） 広島駅前", "category": "bar", "tags": ["bar"], "url": "https://4105-hiroshima.com/", "description": ""}}, {"type": "Feature", "geometry": {"type": "Point", "coordinates": [132.4660033, 34.3907276]}, "properties": {"name": "シーブリーズ", "category": "bar", "tags": ["bar"], "url": null, "description": ""}}, {"type": "Feature", "geometry": {"type": "Point", "coordinates": [132.4655566, 34.3912062]}, "properties": {"name": "夜カフェLOL（ロロ）", "category": "bar", "tags": ["bar"], "url": null, "description": ""}}, {"type": "Feature", "geometry": {"type": "Point", "coordinates": [132.4649624, 34.3901599]}, "properties": {"name": "まことのばぁ〜", "category": "bar", "tags": ["bar"], "url": null, "description": ""}}, {"type": "Feature", "geometry": {"type": "Point", "coordinates": [132.4644831, 34.3905354]}, "properties": {"name": "安達亭", "category": "bar", "tags": ["bar"], "url": "https://adachitei-curry.com/", "description": ""}}, {"type": "Feature", "geometry": {"type": "Point", "coordinates": [132.4637302, 34.3906486]}, "properties": {"name": "Bar NEO", "category": "bar", "tags": ["bar"], "url": "https://neo-hiroshima.com/", "description": ""}}, {"type": "Feature", "geometry": {"type": "Point", "coordinates": [132.4644415, 34.3903466]}, "properties": {"name": "貸切 アメリカンパブ ACE", "category": "bar", "tags": ["bar"], "url": "https://www.hotpepper.jp/strJ003672188/", "description": ""}}, {"type": "Feature", "geometry": {"type": "Point", "coordinates": [132.4654572, 34.3915144]}, "properties": {"name": "ネオ廣島 369(ミロク) サイバーパンク", "category": "bar", "tags": ["bar"], "url": null, "description": ""}}, {"type": "Feature", "geometry": {"type": "Point", "coordinates": [132.4655549, 34.392379]}, "properties": {"name": "銀河", "category": "bar", "tags": ["bar"], "url": null, "description": ""}}, {"type": "Feature", "geometry": {"type": "Point", "coordinates": [132.4658322, 34.3907896]}, "properties": {"name": "メックスキャンティーナ(MEX.CANTINA)", "category": "bar", "tags": ["bar"], "url": "https://retty.me/area/PRE34/ARE152/SUB56606/100001321615/", "description": ""}}, {"type": "Feature", "geometry": {"type": "Point", "coordinates": [132.4649651, 34.3894702]}, "properties": {"name": "Lush Life", "category": "bar", "tags": ["bar"], "url": "http://www.lushlife-jazz.info/", "description": ""}}, {"type": "Feature", "geometry": {"type": "Point", "coordinates": [132.4660242, 34.3909272]}, "properties": {"name": "HAWAIIAN CAFE&BAR SOUL OVER 薬研堀", "category": "bar", "tags": ["bar"], "url": "https://instagram.com/soulover.yagenbori?igshid=OGQ5ZDc2ODk2ZA==", "description": ""}}, {"type": "Feature", "geometry": {"type": "Point", "coordinates": [132.455793, 34.394751]}, "properties": {"name": "TRIPLE", "category": "vegan", "tags": ["vegan", "vegetarian"], "url": null, "description": "Vegan option, Lacto-ovo vegetarian option"}}, {"type": "Feature", "geometry": {"type": "Point", "coordinates": [132.4664769, 34.394006]}, "properties": {"name": "イタリア料理店 LiBERO", "category": "vegan", "tags": ["vegan", "vegetarian"], "url": null, "description": "Vegan option, Lacto-ovo vegetarian option"}}, {"type": "Feature", "geometry": {"type": "Point", "coordinates": [132.462925, 34.390979]}, "properties": {"name": "而今 じこん ZICON", "category": "vegan", "tags": ["vegan", "vegetarian"], "url": null, "description": "Vegan option, Lacto-ovo vegetarian option"}}, {"type": "Feature", "geometry": {"type": "Point", "coordinates": [132.4612262, 34.3892416]}, "properties": {"name": "Cantina23", "category": "vegan", "tags": ["vegan", "vegetarian"], "url": null, "description": "Lacto-ovo vegetarian option, vegan option"}}, {"type": "Feature", "geometry": {"type": "Point", "coordinates": [132.4499575, 34.3939995]}, "properties": {"name": "SHEBA CAFE", "category": "vegetarian", "tags": ["vegetarian"], "url": null, "description": "Lacto-ovo vegetarian option"}}, {"type": "Feature", "geometry": {"type": "Point", "coordinates": [132.9119932, 34.3452938]}, "properties": {"name": "Nakazawa", "category": "vegan", "tags": ["vegan", "vegetarian"], "url": null, "description": "100% lacto-ovo vegetarian restaurant, Vegan option"}}, {"type": "Feature", "geometry": {"type": "Point", "coordinates": [132.47551, 34.3993233]}, "properties": {"name": "Sky Restaraunt & Lounge L&R", "category": "vegetarian", "tags": ["vegetarian"], "url": "https://www.hgh.co.jp/rest/specialmenu/", "description": "Lacto-ovo vegetarian option"}}, {"type": "Feature", "geometry": {"type": "Point", "coordinates": [132.4484699, 34.3943503]}, "properties": {"name": "Croissant Marche", "category": "vegan", "tags": ["vegan", "vegetarian"], "url": null, "description": "Vegan option, Lacto-ovo vegetarian option"}}, {"type": "Feature", "geometry": {"type": "Point", "coordinates": [132.420315, 34.410156]}, "properties": {"name": "Saishoku-Kenbi Hiroshima", "category": "vegan", "tags": ["vegan", "vegetarian"], "url": null, "description": "100% lacto-ovo vegetarian restaurant, Vegan option"}}, {"type": "Feature", "geometry": {"type": "Point", "coordinates": [132.4483556, 34.3981421]}, "properties": {"name": "Sapana", "category": "vegetarian", "tags": ["vegetarian"], "url": null, "description": "Lacto-ovo vegetarian option"}}, {"type": "Feature", "geometry": {"type": "Point", "coordinates": [132.4488541, 34.3935077]}, "properties": {"name": "Hachidori-sha Social Book Cafe", "category": "vegan", "tags": ["vegan", "vegetarian"], "url": null, "description": "Vegan option, Lacto-ovo vegetarian option"}}, {"type": "Feature", "geometry": {"type": "Point", "coordinates": [132.4492898, 34.3930522]}, "properties": {"name": "Parco della Pace", "category": "vegan", "tags": ["vegan", "vegetarian"], "url": null, "description": "Vegan option, Lacto-ovo vegetarian option"}}, {"type": "Feature", "geometry": {"type": "Point", "coordinates": [132.4498703, 34.388958]}, "properties": {"name": "Otis!", "category": "vegan", "tags": ["vegan", "vegetarian"], "url": null, "description": "Vegan option, Lacto-ovo vegetarian option, Gluten-free option"}}, {"type": "Feature", "geometry": {"type": "Point", "coordinates": [132.4542722, 34.3940113]}, "properties": {"name": "Cafe Ponte", "category": "vegetarian", "tags": ["vegetarian"], "url": "https://hiroshima-days.blogspot.com/search?q=vegetarian", "description": "Lacto-ovo vegetarian option, Gluten-free option,"}}, {"type": "Feature", "geometry": {"type": "Point", "coordinates": [132.454485, 34.394216]}, "properties": {"name": "Nagataya", "category": "vegan", "tags": ["vegan", "vegetarian"], "url": null, "description": "Vegan option, Lacto-ovo vegetarian option"}}, {"type": "Feature", "geometry": {"type": "Point", "coordinates": [132.4553758, 34.3919635]}, "properties": {"name": "KARSIYAKA", "category": "vegetarian", "tags": ["vegetarian"], "url": null, "description": "Lacto-ovo vegetarian option"}}, {"type": "Feature", "geometry": {"type": "Point", "coordinates": [132.455248, 34.391461]}, "properties": {"name": "KeMBY's Brew Pub", "category": "vegetarian", "tags": ["vegetarian"], "url": null, "description": "Lacto-ovo vegetarian option, Gluten-free option"}}, {"type": "Feature", "geometry": {"type": "Point", "coordinates": [132.4585466, 34.3905757]}, "properties": {"name": "Taiko Udon Nakamachi Shop", "category": "vegan", "tags": ["vegan", "vegetarian"], "url": null, "description": "Vegan option, Lacto-ovo vegetarian option"}}, {"type": "Feature", "geometry": {"type": "Point", "coordinates": [132.46505, 34.3904]}, "properties": {"name": "Borrachos", "category": "vegetarian", "tags": ["vegetarian"], "url": null, "description": "Lacto-ovo vegetarian option"}}, {"type": "Feature", "geometry": {"type": "Point", "coordinates": [132.4632891, 34.3917801]}, "properties": {"name": "Molly Malone’s", "category": "vegetarian", "tags": ["vegetarian"], "url": null, "description": "Lacto-ovo vegetarian option"}}, {"type": "Feature", "geometry": {"type": "Point", "coordinates": [132.4586294, 34.3943785]}, "properties": {"name": "Kissa Saeki", "category": "vegan", "tags": ["vegan", "vegetarian"], "url": null, "description": "Vegan option, Lacto-ovo vegetarian option, Gluten-free option"}}, {"type": "Feature", "geometry": {"type": "Point", "coordinates": [132.4558631, 34.3927938]}, "properties": {"name": "Kanak", "category": "vegan", "tags": ["vegan", "vegetarian"], "url": null, "description": "Vegan option, Lacto-ovo vegetarian option"}}, {"type": "Feature", "geometry": {"type": "Point", "coordinates": [132.454737, 34.3833]}, "properties": {"name": "3Tree", "category": "vegetarian", "tags": ["vegetarian"], "url": null, "description": "Lacto-ovo vegetarian option, Gluten-free option"}}, {"type": "Feature", "geometry": {"type": "Point", "coordinates": [132.479029, 34.397624]}, "properties": {"name": "Roopali Indian Restaurant", "category": "vegan", "tags": ["vegan", "vegetarian"], "url": null, "description": "Vegan option, Lacto-ovo vegetarian option"}}, {"type": "Feature", "geometry": {"type": "Point", "coordinates": [132.3227778, 34.3013889]}, "properties": {"name": "Yamaichi Bekkan", "category": "vegan", "tags": ["vegan", "vegetarian"], "url": "https://www.instagram.com/p/CC4_X8pjFIi/?utm_source=ig_web_copy_link", "description": "Vegan option, Lacto-ovo vegetarian option, Gluten-free option"}}, {"type": "Feature", "geometry": {"type": "Point", "coordinates": [132.4562924, 34.392444]}, "properties": {"name": "CoCo Ichiban-ya Naka-ku Otemachi", "category": "vegan", "tags": ["vegan", "vegetarian"], "url": null, "description": "Vegan options, Lacto-ovo vegetarian options"}}, {"type": "Feature", "geometry": {"type": "Point", "coordinates": [132.459913, 34.3895914]}, "properties": {"name": "JIRO KICHI", "category": "vegan", "tags": ["vegan", "vegetarian"], "url": "https://www.youtube.com/shorts/AfRoYmpQChM", "description": "vegan options, vegetarian options\nCheck out this cool short video, \"The World of Hiroshima Okonomiyaki\"!"}}, {"type": "Feature", "geometry": {"type": "Point", "coordinates": [132.4613817, 34.3909669]}, "properties": {"name": "ORGANIC CAFE ONE EARTH", "category": "vegan", "tags": ["vegan", "vegetarian"], "url": null, "description": "vegan options, vegetarian options, gluten-free options"}}, {"type": "Feature", "geometry": {"type": "Point", "coordinates": [132.4568952, 34.3903636]}, "properties": {"name": "TEPPANYAKI ATAGO", "category": "vegan", "tags": ["vegan", "vegetarian"], "url": null, "description": "vegan options, vegetarian options"}}, {"type": "Feature", "geometry": {"type": "Point", "coordinates": [132.4573815, 34.397438]}, "properties": {"name": "RIHGA ROYAL HOTEL HIROSHIMA", "category": "vegan", "tags": ["vegan", "vegetarian"], "url": null, "description": "vegan options, vegetarian options"}}, {"type": "Feature", "geometry": {"type": "Point", "coordinates": [132.4623527, 34.3949144]}, "properties": {"name": "Namaste 八丁堀店", "category": "vegan", "tags": ["vegan", "vegetarian"], "url": null, "description": "vegan options, vegetarian options"}}, {"type": "Feature", "geometry": {"type": "Point", "coordinates": [132.4552309, 34.3894008]}, "properties": {"name": "THE KNOT HIROSHIMA / MORE THAN HIROSHIMA", "category": "vegan", "tags": ["vegan"], "url": null, "description": "vegan options, gluten-free options"}}, {"type": "Feature", "geometry": {"type": "Point", "coordinates": [132.4621181, 34.3861663]}, "properties": {"name": "HILTON HIROSHIMA", "category": "vegan", "tags": ["vegan", "vegetarian"], "url": null, "description": "vegan options, vegetarian options, gluten-free options"}}, {"type": "Feature", "geometry": {"type": "Point", "coordinates": [132.4779122, 34.39802]}, "properties": {"name": "SHERATON GRAND HIROSHIMA HOTEL", "category": "vegan", "tags": ["vegan", "vegetarian"], "url": null, "description": "vegan options, vegetarian options, gluten-free options"}}, {"type": "Feature", "geometry": {"type": "Point", "coordinates": [132.318702, 34.2925453]}, "properties": {"name": "ROKKAKU SABO", "category": "vegan", "tags": ["vegan"], "url": null, "description": "vegan options"}}, {"type": "Feature", "geometry": {"type": "Point", "coordinates": [132.2686719, 34.7715308]}, "properties": {"name": "SHOJIN ITALIAN JYOKENJI", "category": "vegan", "tags": ["vegan"], "url": null, "description": "vegan options"}}, {"type": "Feature", "geometry": {"type": "Point", "coordinates": [133.1988706, 34.4068355]}, "properties": {"name": "HATO-KITCHEN", "category": "vegetarian", "tags": ["vegetarian"], "url": null, "description": "vegetarian options"}}, {"type": "Feature", "geometry": {"type": "Point", "coordinates": [133.196828, 34.4062275]}, "properties": {"name": "Spice cafe coyote", "category": "vegan", "tags": ["vegan", "vegetarian"], "url": null, "description": "vegan options, vegetarian options, gluten-free options"}}, {"type": "Feature", "geometry": {"type": "Point", "coordinates": [133.059548, 34.583531]}, "properties": {"name": "SETSUGETSUFUKA FUKUCHIIN", "category": "vegan", "tags": ["vegan", "vegetarian"], "url": null, "description": "vegan options, vegetarian options, gluten-free options"}}, {"type": "Feature", "geometry": {"type": "Point", "coordinates": [132.3184934, 34.2920462]}, "properties": {"name": "DAISHOIN TEMPLE 大聖院", "category": "vegan", "tags": ["vegan", "vegetarian"], "url": null, "description": "Reserve 5 days in advance and 4 person minimum. 100% vegan restaurant (Lacto-ovo vegetarian option available with matcha tea service)"}}, {"type": "Feature", "geometry": {"type": "Point", "coordinates": [132.4587873, 34.3943375]}, "properties": {"name": "PIZZERIA BAR ARIETTA アリエッタ", "category": "vegetarian", "tags": ["vegetarian"], "url": null, "description": "Lacto-ovo vegetarian options available"}}, {"type": "Feature", "geometry": {"type": "Point", "coordinates": [132.4754616, 34.399283]}, "properties": {"name": "Chinese Dining \"Koh-Ran-En\"", "category": "vegetarian", "tags": ["vegetarian"], "url": "https://www.hgh.co.jp/rest/specialmenu/", "description": "Lacto-ovo vegetarian option"}}, {"type": "Feature", "geometry": {"type": "Point", "coordinates": [132.4593754, 34.389961]}, "properties": {"name": "Vegetarian Chinese cuisine Kei-ai\n素食中華料理店 桂愛", "category": "vegan", "tags": ["vegan", "vegetarian"], "url": "https://www.instagram.com/keiai_hiroshima/", "description": "Huge selection of oriental vegetarian dishes of Taiwan origin in Hiroshima city center. A small number of dishes contain egg, but can be made 100% vegan on request."}}, {"type": "Feature", "geometry": {"type": "Point", "coordinates": [132.449767, 34.3978827]}, "properties": {"name": "hangout（TAROS BREWING Beer Pub）", "category": "vegan", "tags": ["vegan", "vegetarian"], "url": "https://tarosbrewing.com/", "description": "・Vegan Option Available\n・Lacto-ovo vegetarian Option Available\n・Pescatarian Option Available\n\nBrewpub with modern design that serves a good range of vegetarian and vegan comfort food that goes well with their selection of craft beers. Cooking oil not separated. Beers are vegan too!"}}, {"type": "Feature", "geometry": {"type": "Point", "coordinates": [132.459384, 34.386189]}, "properties": {"name": "典座 Tenzo", "category": "vegan", "tags": ["vegan"], "url": "https://www.instagram.com/tenzo_hiroshima", "description": "Vegan Option Available\nCreative dishes inspired by Buddhist shojin cuisine. Set lunch available on Mondays and Tuesdays. Other days and dinner also available with advance reservation. White sugar used in some dishes."}}, {"type": "Feature", "geometry": {"type": "Point", "coordinates": [132.464831, 34.3916002]}, "properties": {"name": "Okonomiyaki Chinchikurin Nagarekawa お好み焼・鉄板焼 ちんちくりん 流川店", "category": "vegan", "tags": ["vegan"], "url": "https://www.chinchikurin.com/shop/nagarekawa/", "description": "Vegan option available\nLively okomiyaki shop with a clearly-labeled vegan okomiyaki option on its English menu. Although all food is cooked on the same grill, an effort is made to reserve one area for vegan okonomiyaki."}}, {"type": "Feature", "geometry": {"type": "Point", "coordinates": [132.305595, 34.3115779]}, "properties": {"name": "Okonomiyaki Chinchikurin Miyajimaguchi お好み焼・鉄板焼 ちんちくりん 宮島口店", "category": "vegan", "tags": ["vegan"], "url": "https://www.chinchikurin.com/shop/miyajima/", "description": "Vegan option available\nSpacious okonomiyaki restaurant in the retail building attached to the Miyajima-guchi ferry terminal. All food is cooked on the same grill, an effort is made to reserve one area for vegan okonomiyaki."}}, {"type": "Feature", "geometry": {"type": "Point", "coordinates": [132.2892962, 34.3153971]}, "properties": {"name": "Big Apple vegan cafe", "category": "vegan", "tags": ["vegan"], "url": "https://www.instagram.com/big_apple_0786/", "description": "100% vegan\nAll-vegan cafe, a short taxi ride from Miyajima-guchi Station, that serves curry with brown rice, gyoza pot-stickers, deep-fried soy karaage, as well as desserts and smoothies."}}, {"type": "Feature", "geometry": {"type": "Point", "coordinates": [132.7457129, 34.4301303]}, "properties": {"name": "France-ya 佛蘭西屋", "category": "vegan", "tags": ["vegan"], "url": "https://www.france-ya.jp/", "description": "Vegan option available\nVegan sake pairing set meals, vegan lunch, and dinner courses are available in the heart of Saijo's sake brewing district. Excellent understanding of vegan needs and great care is taken to avoid cross-contamination."}}, {"type": "Feature", "geometry": {"type": "Point", "coordinates": [132.4598564, 34.3918929]}, "properties": {"name": "grill＆deli LAVE", "category": "vegan", "tags": ["vegan"], "url": "https://www.grill-deli-lave.com/", "description": "Vegan option available\nVibrant farm-to-table dining with vegan-friendly options: 4 vegan salads, 2 deli dishes, and hearty vegan soups, crafted for health and beauty."}}, {"type": "Feature", "geometry": {"type": "Point", "coordinates": [132.4556414, 34.394164]}, "properties": {"name": "CRAFT BEERと炭火 はればれ", "category": "vegan", "tags": ["vegan"], "url": "https://hnb.beer/", "description": "Vegan option available\nA limited number of light vegan meals (vegan meatloaf, vegan taco rice, and organic salad) available to complement craft beers brewed on site near Hiroshima Peace Memorial Park."}}, {"type": "Feature", "geometry": {"type": "Point", "coordinates": [132.5653408, 34.3316228]}, "properties": {"name": "カフェタネムラ vegancafe &restaurant 優しいランチとスイーツ スローフード 自然食無化調", "category": "vegan", "tags": ["vegan"], "url": "https://www.instagram.com/vegancafe.hiroshima.yk/", "description": "100% vegan cafe/restaurant located in the brush-making capital town of Kumano, in the hills outside Hiroshima. Over 90% of the vegetables used are home-grown and pesticide-free. The menu includes noodle dishes and vegan desserts."}}, {"type": "Feature", "geometry": {"type": "Point", "coordinates": [132.4759917, 34.397622]}, "properties": {"name": "Dashi & Soba (Dashi To Soba) Suisha  ekie Hiroshima\nDASHIとSOBA水車 ekie広島店", "category": "vegan", "tags": ["vegan"], "url": "https://soba-suisha-ekie.gorp.jp/", "description": "Vegan Option Available\nSeveral vegan soba and noodle dishes use plant-based kelp stock with a distinctive shiitake mushroom flavor. Vegan tempura and several vegan sides, including hearty onigiri rice balls are all clearly marked in this soba noodle restaurant in Hiroshima Station's ground floor ekie dining zone.\n\nThe same frying oil as used for other regular menu items is used. (There is a note i"}}, {"type": "Feature", "geometry": {"type": "Point", "coordinates": [132.4779273, 34.3978024]}, "properties": {"name": "SUZU CAFE hiroshima", "category": "vegan", "tags": ["vegan"], "url": "https://www.hotpepper.jp/strJ000987849/", "description": "Vegan Option Available\nThe menu at this popular cafe in the same building as the Sheraton Hotel in front of Hiroshima Station's North Exit includes vegan appetizers, sides, pasta dishes, and desserts. Vegan options are labeled \"Plant-Based.\""}}, {"type": "Feature", "geometry": {"type": "Point", "coordinates": [132.4547147, 34.3940319]}, "properties": {"name": "Hiroshima Okonomiyaki undo\n広島お好み焼き undo（あんど）", "category": "vegan", "tags": ["vegan"], "url": "https://www.instagram.com/undo.udon/", "description": "Vegan Option Available\nVegan and gluten-free Hiroshima-style okonomiyaki made with thin udon noodles in a shared space with several okonomiyaki shops on central Hiroshima's main shopping arcade.\nうどん専門のお好み焼き、グルテンフリーのうどんもやってます！2025年3月から全て自家製麺のグルテンフリーのうどんを使ったお好み焼きになります！"}}, {"type": "Feature", "geometry": {"type": "Point", "coordinates": [132.3053995, 34.3116123]}, "properties": {"name": "HIROSHIMA RAMEN Momiji Miyajima-guchi\n広島ラーメン 椛 -momiji- 宮島口本店", "category": "vegan", "tags": ["vegan"], "url": "https://ramen-momiji.com/", "description": "Vegan option available\nCreamy vegan ramen with cabbage and sweetcorn toppings and vegan vegetable fried gyoza potstickers are available on the upper floor of Etto at the Miyajima-guchi ferry terminal."}}, {"type": "Feature", "geometry": {"type": "Point", "coordinates": [132.4719277, 34.3938293]}, "properties": {"name": "Ippeiya\n元祖広島まぜ麺 一平や", "category": "vegan", "tags": ["vegan"], "url": "https://www.facebook.com/ganso.hiroshima.mazemen.ramen.ippeiya/", "description": "Vegan option available\nThere is no need for vegans to miss out on Hiroshima's little know super spicy soupless noodle scene. Generous portions of egg-free noodles, topped with beansprouts and mushrooms, and choose your own spice level chili paste. Black pepper and curry powder toppings are also available."}}, {"type": "Feature", "geometry": {"type": "Point", "coordinates": [132.3219893, 34.2997335]}, "properties": {"name": "Restaurant Tachibana\nお食事処 たち花", "category": "vegan", "tags": ["vegan", "vegetarian"], "url": "https://www.instagram.com/tachibana.miyajima?igshid=ZDdkNTZiNTM%3D", "description": "Vegan / Vegetarian option available\nA feature of Miyajima's Omotesando shopping street for over 80 years, alongside local favorites like oyster and ell dishes, Tachibana also has a vegan and vegetarian menu featuring udon, soba, Japanese curry, and tempura dishes, served with vegan miso soup."}}, {"type": "Feature", "geometry": {"type": "Point", "coordinates": [132.3232858, 34.2999931]}, "properties": {"name": "Miyajima Cuillere 宮島キュイエール", "category": "vegan", "tags": ["vegan", "vegetarian"], "url": null, "description": "Vegan option / Pescatarian option available\n\nOne of the few restaurants on Miyajima that is open after dark. The a la carte menu includes vegan appetizers and salads, two vegan pasta dishes, and vegan curry doria. Good wine selection and craft beers also on sale."}}, {"type": "Feature", "geometry": {"type": "Point", "coordinates": [132.3148269, 34.2950388]}, "properties": {"name": "Miyajima Mori-no-Yado, restaurant Ōmoto 国民宿舎 みやじま 杜の宿 レストランおおもと", "category": "vegan", "tags": ["vegan"], "url": "https://www.morinoyado.jp/en/index.html", "description": "Vegan option available\n\nRyokan next to Omoto Shrine on Miyajima offers an excellent set lunch featuring a selection of inventive Japanese dishes inspired by shojin Buddhist cuisine."}}, {"type": "Feature", "geometry": {"type": "Point", "coordinates": [132.3218606, 34.2996547]}, "properties": {"name": "Akushu Restaurant / 握手レストラン", "category": "vegan", "tags": ["vegan"], "url": "https://akushucafe.com/akushu-restaurant/", "description": "Vegan option available.\nFrench and European cuisine on Miyajima’s Omotesando shopping street. Vegan options included soup, salad, pasta, curry, and chickpea hamburger steak. Dessert may contain honey."}}, {"type": "Feature", "geometry": {"type": "Point", "coordinates": [132.4618994, 34.3913512]}, "properties": {"name": "Teppei Okonomimura てっ平 お好み村3F", "category": "vegan", "tags": ["vegan", "vegetarian"], "url": "http://www.okonomimura.jp/floor/3f-teppei.html", "description": "Vegan / Vegetarian option available\nEgg-free noodles, vegan sauce, separate pancake batter, and lard-free griddle. Mention you are vegan when ordering “Vegetarian” okonomiyaki without egg. Kimchi is also animal-free.\nGluten-free sauce available."}}, {"type": "Feature", "geometry": {"type": "Point", "coordinates": [132.3413021, 34.36529]}, "properties": {"name": "Tonkatsu Taichi とんかつ太一", "category": "vegan", "tags": ["vegan"], "url": null, "description": "Vegan option available"}}, {"type": "Feature", "geometry": {"type": "Point", "coordinates": [132.3114931, 34.3566247]}, "properties": {"name": "KONDITOREI FELDERCHEF コンディトライ・フェルダーシェフ", "category": "vegan", "tags": ["vegan"], "url": "https://felderchef.com/", "description": "Vegan option available\nVegan and gluten-free set lunch in this bakery's hillside cafe includes pizza, cookies and a drink."}}, {"type": "Feature", "geometry": {"type": "Point", "coordinates": [132.3029296, 34.3113956]}, "properties": {"name": "douze Miyajima ドゥーズ宮島", "category": "vegan", "tags": ["vegan", "vegetarian"], "url": null, "description": "Vegan / Vegetarian opion available"}}, {"type": "Feature", "geometry": {"type": "Point", "coordinates": [132.3216205, 34.2956271]}, "properties": {"name": "SO NO MA 素の間", "category": "vegan", "tags": ["vegan"], "url": null, "description": "Vegan option available"}}, {"type": "Feature", "geometry": {"type": "Point", "coordinates": [132.3247816, 34.2942771]}, "properties": {"name": "MOMIJI-SO もみぢ荘", "category": "vegan", "tags": ["vegan"], "url": null, "description": "Vegan option available"}}, {"type": "Feature", "geometry": {"type": "Point", "coordinates": [132.318702, 34.2925453]}, "properties": {"name": "MIYAJIMA HEXAGON CAFE(Rokkakusabo) 大聖院　六角茶房", "category": "vegan", "tags": ["vegan"], "url": null, "description": "Vegan option available"}}, {"type": "Feature", "geometry": {"type": "Point", "coordinates": [133.3642384, 34.490849]}, "properties": {"name": "Cafe Rest Montrose (Fukuyama Oriental Hotel Montrose) カフェレスト モンローズ", "category": "vegan", "tags": ["vegan", "vegetarian"], "url": null, "description": "Vegan / Vegetarian option available"}}, {"type": "Feature", "geometry": {"type": "Point", "coordinates": [133.3836411, 34.3882481]}, "properties": {"name": "OFUTEI ホテル鴎風亭", "category": "vegan", "tags": ["vegan", "vegetarian"], "url": null, "description": "Vegan / Vegetarian option available"}}, {"type": "Feature", "geometry": {"type": "Point", "coordinates": [133.1957892, 34.4057772]}, "properties": {"name": "Kofuku 粉福", "category": "vegan", "tags": ["vegan", "vegetarian"], "url": null, "description": "Okonomiyaki restaurant\nVegan / Vegetarian option available"}}, {"type": "Feature", "geometry": {"type": "Point", "coordinates": [133.1950737, 34.4047923]}, "properties": {"name": "Komedoko Shokudo restaurant こめどこ食堂", "category": "vegan", "tags": ["vegan"], "url": null, "description": "Vegan option available"}}, {"type": "Feature", "geometry": {"type": "Point", "coordinates": [133.205753, 34.410383]}, "properties": {"name": "Bingo Saryo 備後茶量", "category": "vegan", "tags": ["vegan"], "url": null, "description": "Vegan option available"}}, {"type": "Feature", "geometry": {"type": "Point", "coordinates": [132.966092, 34.337004]}, "properties": {"name": "Okonomi Kissa Eden お好み喫茶エデン", "category": "vegan", "tags": ["vegan", "vegetarian"], "url": null, "description": "Okonomiyaki restaurant\nVegan / Vegetarian option available"}}, {"type": "Feature", "geometry": {"type": "Point", "coordinates": [132.9893633, 34.3390333]}, "properties": {"name": "Okonomiyaki Fuji お好み焼き ふじ", "category": "vegan", "tags": ["vegan", "vegetarian"], "url": null, "description": "Vegan / Vegetarian option available"}}, {"type": "Feature", "geometry": {"type": "Point", "coordinates": [132.3644768, 34.3628747]}, "properties": {"name": "Mehl", "category": "vegan", "tags": ["vegan"], "url": "https://www.instagram.com/kairoumehl/", "description": "German bakery\nVegan option available on weekends & National Holidays. Cookies also available daily."}}, {"type": "Feature", "geometry": {"type": "Point", "coordinates": [132.462925, 34.390979]}, "properties": {"name": "而今 じこん ZICON", "category": "vegetarian", "tags": [], "url": null, "description": ""}}, {"type": "Feature", "geometry": {"type": "Point", "coordinates": [132.298761, 34.305711]}, "properties": {"name": "Shimada Suisan", "category": "vegetarian", "tags": [], "url": null, "description": ""}}, {"type": "Feature", "geometry": {"type": "Point", "coordinates": [132.3227778, 34.3013889]}, "properties": {"name": "Yamaichi Bekkan", "category": "muslim", "tags": ["muslim"], "url": "https://fooddiversity.today/en/article_137897.html", "description": "The “Halal Wagyu Beef Set Meal\" is now available."}}, {"type": "Feature", "geometry": {"type": "Point", "coordinates": [132.420315, 34.410156]}, "properties": {"name": "Saishoku-Kenbi Hiroshima", "category": "vegetarian", "tags": [], "url": null, "description": ""}}, {"type": "Feature", "geometry": {"type": "Point", "coordinates": [132.4483556, 34.3981421]}, "properties": {"name": "Sapana", "category": "vegetarian", "tags": [], "url": null, "description": ""}}, {"type": "Feature", "geometry": {"type": "Point", "coordinates": [132.4586294, 34.3943785]}, "properties": {"name": "Kissa Saeki", "category": "vegetarian", "tags": [], "url": null, "description": ""}}, {"type": "Feature", "geometry": {"type": "Point", "coordinates": [132.4558631, 34.3927938]}, "properties": {"name": "Kanak", "category": "vegetarian", "tags": [], "url": null, "description": ""}}, {"type": "Feature", "geometry": {"type": "Point", "coordinates": [132.4553758, 34.3919635]}, "properties": {"name": "KARSIYAKA", "category": "vegetarian", "tags": [], "url": null, "description": ""}}, {"type": "Feature", "geometry": {"type": "Point", "coordinates": [132.4590977, 34.3905497]}, "properties": {"name": "Tempura Tenkou", "category": "vegetarian", "tags": [], "url": null, "description": ""}}, {"type": "Feature", "geometry": {"type": "Point", "coordinates": [132.4524689, 34.3825836]}, "properties": {"name": "Warung Matahari", "category": "vegetarian", "tags": [], "url": null, "description": ""}}, {"type": "Feature", "geometry": {"type": "Point", "coordinates": [132.4718345, 34.3951872]}, "properties": {"name": "Sumiya Spa & Hotel", "category": "vegetarian", "tags": [], "url": null, "description": ""}}, {"type": "Feature", "geometry": {"type": "Point", "coordinates": [132.4552309, 34.3894008]}, "properties": {"name": "MORE THAN HIROSHIMA", "category": "vegetarian", "tags": [], "url": null, "description": ""}}, {"type": "Feature", "geometry": {"type": "Point", "coordinates": [132.4621181, 34.3861663]}, "properties": {"name": "HILTON HIROSHIMA", "category": "vegetarian", "tags": [], "url": null, "description": ""}}, {"type": "Feature", "geometry": {"type": "Point", "coordinates": [132.4623527, 34.3949144]}, "properties": {"name": "Namaste 八丁堀店", "category": "vegetarian", "tags": [], "url": null, "description": ""}}, {"type": "Feature", "geometry": {"type": "Point", "coordinates": [132.4585466, 34.3905757]}, "properties": {"name": "TAIKO UDON 中町店", "category": "vegetarian", "tags": [], "url": null, "description": ""}}, {"type": "Feature", "geometry": {"type": "Point", "coordinates": [132.7446061, 34.4276176]}, "properties": {"name": "Halal Shop Saijo", "category": "vegetarian", "tags": [], "url": null, "description": ""}}, {"type": "Feature", "geometry": {"type": "Point", "coordinates": [132.738345, 34.3911756]}, "properties": {"name": "Hiroshima Islamic Cultural Center", "category": "vegetarian", "tags": [], "url": null, "description": ""}}, {"type": "Feature", "geometry": {"type": "Point", "coordinates": [132.4613475, 34.3908553]}, "properties": {"name": "Hara Donuts", "category": "vegetarian", "tags": [], "url": null, "description": ""}}, {"type": "Feature", "geometry": {"type": "Point", "coordinates": [132.462925, 34.390979]}, "properties": {"name": "而今 じこん ZICON", "category": "muslim", "tags": ["muslim"], "url": null, "description": ""}}, {"type": "Feature", "geometry": {"type": "Point", "coordinates": [132.298761, 34.305711]}, "properties": {"name": "Shimada Suisan", "category": "muslim", "tags": ["muslim"], "url": null, "description": ""}}, {"type": "Feature", "geometry": {"type": "Point", "coordinates": [132.420315, 34.410156]}, "properties": {"name": "Saishoku-Kenbi Hiroshima", "category": "muslim", "tags": ["muslim"], "url": null, "description": ""}}, {"type": "Feature", "geometry": {"type": "Point", "coordinates": [132.4483556, 34.3981421]}, "properties": {"name": "Sapana", "category": "muslim", "tags": ["muslim"], "url": null, "description": ""}}, {"type": "Feature", "geometry": {"type": "Point", "coordinates": [132.4586294, 34.3943785]}, "properties": {"name": "Kissa Saeki", "category": "muslim", "tags": ["muslim"], "url": null, "description": ""}}, {"type": "Feature", "geometry": {"type": "Point", "coordinates": [132.4558631, 34.3927938]}, "properties": {"name": "Kanak", "category": "muslim", "tags": ["muslim"], "url": null, "description": ""}}, {"type": "Feature", "geometry": {"type": "Point", "coordinates": [132.4553758, 34.3919635]}, "properties": {"name": "KARSIYAKA", "category": "muslim", "tags": ["muslim"], "url": null, "description": ""}}, {"type": "Feature", "geometry": {"type": "Point", "coordinates": [132.4590977, 34.3905497]}, "properties": {"name": "Tempura Tenkou", "category": "muslim", "tags": ["muslim"], "url": null, "description": ""}}, {"type": "Feature", "geometry": {"type": "Point", "coordinates": [132.4524689, 34.3825836]}, "properties": {"name": "Warung Matahari", "category": "muslim", "tags": ["muslim"], "url": null, "description": ""}}, {"type": "Feature", "geometry": {"type": "Point", "coordinates": [132.4718345, 34.3951872]}, "properties": {"name": "Sumiya Spa & Hotel", "category": "muslim", "tags": ["muslim"], "url": null, "description": ""}}, {"type": "Feature", "geometry": {"type": "Point", "coordinates": [132.4552309, 34.3894008]}, "properties": {"name": "MORE THAN HIROSHIMA", "category": "muslim", "tags": ["muslim"], "url": null, "description": ""}}, {"type": "Feature", "geometry": {"type": "Point", "coordinates": [132.4621181, 34.3861663]}, "properties": {"name": "HILTON HIROSHIMA", "category": "muslim", "tags": ["muslim"], "url": null, "description": ""}}, {"type": "Feature", "geometry": {"type": "Point", "coordinates": [132.4623527, 34.3949144]}, "properties": {"name": "Namaste 八丁堀店", "category": "muslim", "tags": ["muslim"], "url": null, "description": ""}}, {"type": "Feature", "geometry": {"type": "Point", "coordinates": [132.4585466, 34.3905757]}, "properties": {"name": "TAIKO UDON 中町店", "category": "muslim", "tags": ["muslim"], "url": null, "description": ""}}, {"type": "Feature", "geometry": {"type": "Point", "coordinates": [132.7446061, 34.4276176]}, "properties": {"name": "Halal Shop Saijo", "category": "muslim", "tags": ["muslim"], "url": null, "description": ""}}, {"type": "Feature", "geometry": {"type": "Point", "coordinates": [132.738345, 34.3911756]}, "properties": {"name": "Hiroshima Islamic Cultural Center", "category": "muslim", "tags": ["muslim"], "url": null, "description": ""}}, {"type": "Feature", "geometry": {"type": "Point", "coordinates": [132.4613475, 34.3908553]}, "properties": {"name": "Hara Donuts", "category": "muslim", "tags": ["muslim"], "url": null, "description": ""}}]}